#dP2021 12  3  0  0  0.00000000      97 __u+U IGS14 FIT  IAC
## 2186 432000.00000000   900.00000000 59551 0.0000000000000
+  124   C01C02C03C04C05C06C07C08C09C10C11C12C13C14C16C19C20
+        C21C22C23C24C25C26C27C28C29C30C32C33C34C35C36C37C38
+        C39C40C41C42C43C44C45C46C59C60E01E02E03E04E05E07E08
+        E09E11E12E13E14E15E18E19E21E24E25E26E27E30E31E33E36
+        G01G02G03G04G05G06G07G08G09G10G12G13G14G15G16G17G18
+        G19G20G21G22G23G24G25G26G27G28G29G30G31G32J01J02J03
+        J07R01R02R03R04R05R07R08R09R11R12R13R14R15R16R17R18
+        R19R20R21R22R24  0  0  0  0  0  0  0  0  0  0  0  0
++        13 13 13 13 13  9  9 10  8  8  8  8  0  8  9  7  7
++         7  7  7  6  6  7  7  7  7  7  7  7  7  7  7  7  7
++         7  7  7  7  7  7  7  7 20 13  4  4  4  4  4  4  4
++         4  4  4  4  4  4  4  4  4  4  4  4  4  4  4  4  4
++         3  3  3  3  3  3  3  3  3  3  3  3  3  3  3  4  3
++         4  3  3  4  3  3  3  3  3  4  0  3  4  3  8  8  8
++        14  6  5  5  6  7  5  5  5  7  7  7  6  6  7  5  5
++         7  7  6  7  5  0  0  0  0  0  0  0  0  0  0  0  0
%c M  cc GPS ccc cccc cccc cccc cccc ccccc ccccc ccccc ccccc
%c cc cc ccc ccc cccc cccc cccc cccc ccccc ccccc ccccc ccccc
%f  1.2500000  1.025000000  0.00000000000  0.000000000000000
%f  0.0000000  0.000000000  0.00000000000  0.000000000000000
%i    0    0    0    0      0      0      0      0         0
%i    0    0    0    0      0      0      0      0         0
/* INFORMATION & ANALYSIS CENTER (IAC)            FINAL DATA
/* S/V CLOCKS ARE ALIGNED TO GNSS TIME                      
/* G:C1WC2W R:C1PC2P E:C1XC5X C:C2IC6I J:C1CC2S             
/* PCV:IGS14_2178 OL/AL:FES2004  NONE     YN ORB:CoN CLK:CoN
*  2021 12 03  1 45  0.00000000
PC01 -34347.942298  24413.672217    -42.686684   -385.289337
PC02   4375.704618  41968.336656   1084.260140    842.142638
PC03 -14798.466376  39501.804367    664.299470    288.166973
PC04 -39639.623909  14314.331327   -338.906806    291.061033
PC05  21908.709607  36022.133538   1405.506226    321.224887
PC06  -3485.751848  39541.908594  14472.822476    576.986069
PC07  -8643.589251  25410.661786 -32522.144164    167.541951
PC08 -18460.263488  32146.049605  19968.875632    -55.444238
PC09   -288.195586  41654.237892   8278.636205   -316.382842
PC10    710.699768  27088.840826 -32001.657285    136.058424
PC11 -14579.678764 -14486.791149 -18824.631943   -356.748362
PC12  -6796.779393 -26788.477421  -3908.468247   -422.992244
PC13      0.000000      0.000000      0.000000 999999.999999
PC14 -25350.311250 -11361.280063  -2903.430854    511.139444
PC16  -6853.062739  36920.411832  19533.867169     10.462986
PC19  26675.228548   4898.990653  -6533.278639    927.596583
PC20  20987.468112  15207.405508  10323.598861   -792.409469
PC21  -2356.003151 -17016.786707 -21985.487972   -942.669655
PC22  17105.975734  -8648.433119 -20281.247553   -969.889235
PC23 -21471.853917  17814.461509   -136.304782   -963.261229
PC24  -9851.117813 -12939.120548  22669.170401   -955.036911
PC25 -22605.850648   4831.849610  15608.535072   -815.759504
PC26   6661.588634 -21446.809438  16580.455202    813.331257
PC27    800.626985  27452.122599  -5003.159938    639.043838
PC28 -10904.563692  16870.259985 -19361.686178      4.366093
PC29  16405.578019   3099.014031  22357.525515    482.409423
PC30  12597.671467  21974.799810  11731.548834    487.798344
PC32   2380.594161  16997.896571  22010.023334   -958.314996
PC33 -26725.859832  -4799.920467   6455.094730   -964.719137
PC34 -12970.519571 -21315.442120 -12482.114185   -523.413716
PC35  10662.029105 -16733.964788  19607.013858     28.353416
PC36  22582.183489  -3937.612957 -15900.349055   -820.639192
PC37  -8096.623149  21441.554407 -15886.025986   -903.639864
PC38 -24273.634059  32636.139528  10782.022942    193.817735
PC39  -8135.786050  33994.912849  23681.664898     34.212630
PC40 -14380.941325  18463.917990 -35086.367770    223.097593
PC41 -17434.807020   8503.772763  20099.771207   -915.508266
PC42 -20386.203425 -15512.956514 -11043.861477   -936.813155
PC43 -16539.900727  -3835.686201 -22146.254347   -956.893222
PC44  -1590.453480 -27360.944260   5163.134009    485.534313
PC45  21377.792554 -17959.586850    341.560457    616.738572
PC46  11014.531038  11818.878582 -22752.358498    -40.127029
PC59 -32278.987189  27094.498905    355.630295 999999.999999
PC60   7289.516614  41521.758238   -446.421835     -0.386329
PE01 -20254.123599  -9433.587008  19413.993890   -529.825157
PE02  20414.077025   9328.982999 -19308.380249    264.294572
PE03  21360.469100  20103.384083  -3945.364973   -502.302379
PE04 -21912.165280  -4084.011569  19471.774780   -912.503355
PE05   8243.692455  24623.912854  14203.265766   -229.399273
PE07   9506.773265 -14742.553384 -23846.254855   -613.463940
PE08  21705.670832   3663.007735 -19793.475396   5895.210130
PE09  -9169.288498  14839.103067  23906.721321   5443.147406
PE11 -14246.009216  24363.992175  -8936.989126   4968.917270
PE12 -17735.995365   6019.276053 -22918.881341   4880.098464
PE13  14405.807677 -24049.178261   9514.099911    424.300008
PE14 -13109.756589  15875.759341 -23190.204849  -1661.180378
PE15  17644.419455  -5976.371605  23014.185686    777.507956
PE18   -191.648794 -22927.542098  12875.265038  -1826.694806
PE19 -20290.513632 -21488.180746   1588.056174    442.538241
PE21   -657.858510 -16720.828274  24420.083884   -703.046674
PE24 -21286.323861  14320.775302 -14745.013449  -1258.860318
PE25    402.828725  16751.042260 -24391.069977   -555.584760
PE26   2023.276085 -27635.313726 -10416.801185   -525.069307
PE27  20345.305998 -14799.004366  15616.665278   -178.238661
PE30  29231.504127  -3263.108208  -3439.500207    -78.561181
PE31 -29207.580957   4174.415583   2320.292862   -488.853211
PE33 -10465.633741 -15557.921010 -22895.115032   -461.874726
PE36  -2704.823177  27896.439455   9528.442949   -298.470405
PG01  13927.594652 -22187.397616   2785.219623    494.460919
PG02 -16863.784689   6015.713507 -18992.180238   -644.323467
PG03  15405.043083 -12705.930266 -17566.803004    -29.810876
PG04   5802.402235 -17010.078083 -19530.810081   -200.260961
PG05 -25561.178537   5588.384952   4847.176964    -63.097695
PG06 -10463.760544 -11014.487026 -21710.879120    132.770556
PG07   2883.137461 -23540.435608  11809.788242    286.045330
PG08  13817.606527  -6429.703575  21757.226603    -46.571308
PG09  -4926.215669 -23077.876282 -12234.747059   -361.069881
PG10  15179.044147  11918.632247  18503.976851   -259.733589
PG12 -17737.563673  10921.386854 -16652.946484   -135.104877
PG13 -16609.966405  -2265.395417  20484.468475    223.614524
PG14 -14385.069545 -12864.483641  18271.820932    -48.764732
PG15 -13191.039985   8649.183463  20980.897603   -102.034585
PG16  26703.877981   -282.710425   2147.310130   -434.149414
PG17 -12930.244090 -23177.133838    -50.212022    542.113153
PG18  -3037.261049  23257.757047  12359.542058    286.018132
PG19 -16474.773236 -18828.984766  -9431.271628     87.129018
PG20 -25685.924462    540.276955  -6186.585177    517.824472
PG21  16629.717924 -16476.912178  12647.070571    152.706961
PG22  21685.888298 -10960.465783 -10302.715104   -450.562053
PG23   2514.532454  14915.005636  21816.951986     26.145918
PG24 -14692.440640  20473.582719   7412.885346    272.262282
PG25  -5794.480218  15196.051864 -21220.279484    249.862367
PG26  23616.002537   5855.266102 -11068.674479    161.250292
PG27  18222.653167   4959.478732  18645.277005   -226.424953
PG28 -20285.875962 -10496.836986  13904.318895    450.905272
PG29   -117.448770  21567.302946 -15497.049589 999999.999999
PG30  -5440.892842 -18321.198108  18413.807189   -496.270848
PG31  12728.181594   8706.302353 -21717.645571   -153.140781
PG32  16551.897898  20527.703693  -3815.560428    -29.811742
PJ01 -28246.425212  19453.613507  29509.327990    112.518094
PJ02 -34992.310119  18405.480756 -10076.679604     -0.248616
PJ03 -19745.300759  29155.072348 -18595.112136     -8.025237
PJ07 -25388.749538  33656.079593    -15.853172     -0.032545
PR01 -20721.427321  -3758.131865  14392.771204     88.939106
PR02  -5359.469273   9491.679645  23096.042014    502.029228
PR03  11566.351371  15910.212446  16311.878040     47.471410
PR04  21741.061460  13346.416775    542.848598    117.038194
PR05  19923.534951   3521.781248 -15549.613287     83.524638
PR07 -12102.356246 -15940.224757 -15751.995563    -39.524127
PR08 -21797.140910 -13213.162676   -358.186015    -62.331190
PR09  16258.504160 -15980.455238  11388.797176     26.716160
PR11 -14965.281156  -2500.322549  20518.205060     49.504651
PR12 -22818.704233   9497.848706   6282.545611    283.349837
PR13 -17076.189356  15753.173354 -10540.382894    -64.307357
PR14   -630.526502  12661.958874 -22124.624124     71.648134
PR15  15502.576205   2300.138949 -20107.509143     99.843520
PR16  22660.227969 -10785.315931  -4977.646790    -26.077615
PR17   1996.207360  24829.623211   5402.262479    480.170864
PR18   8304.256255  14499.861955  19311.830938     99.188446
PR19  10414.851333  -2189.457619  23187.935087   -169.242075
PR20   6720.281879 -21105.346005  12633.285634    -60.469733
PR21  -2465.224717 -24497.207736  -6727.042742   -259.222436
PR22  -8452.629224 -13529.840227 -19879.240454   -148.978266
PR24  -6245.748242  21681.625502 -11856.552862     69.522705
EOF
